0 SL-12 DEB
1 36882U 89001V   13280.95903435  .00003112  00000-0  24392-1 0  6509
2 36882 064.9406 250.1304 2411497 002.0773 019.3281 09.15022056114549
0 SL-12 DEB
1 36882U 89001V   13284.02585228  .00005670  00000-0  43272-1 0  6517
2 36882 064.9512 246.7180 2417267 001.8368 041.7014 09.15069887114825
0 SL-12 DEB
1 36882U 89001V   13285.99245743  .00008495  00000-0  63461-1 0  6520
2 36882 064.9593 244.5262 2422325 001.7295 040.0261 09.15081239115002
0 SL-12 DEB
1 36882U 89001V   13288.07201126  .00015969  00000-0  11663+0 0  6539
2 36882 064.9644 242.2077 2427515 001.6254 050.6530 09.15109596115191
0 SL-12 DEB
1 36882U 89001V   13293.85273313  .00025555  00000-0  17808+0 0  6548
2 36882 064.9744 235.7588 2436999 001.3392 017.8117 09.15471358115725
0 SL-12 DEB
1 36882U 89001V   13294.29952701  .00027168  00000-0  18862+0 0  6556
2 36882 064.9719 235.2567 2437846 001.3371 050.2356 09.15479766115769
0 SL-12 DEB
1 36882U 89001V   13294.95200278  .00024798  00000-0  17142+0 0  6561
2 36882 064.9757 234.5363 2438771 001.3225 040.5768 09.15520367115823
